NORAD_CAT_ID,OBJECT_NAME,OBJECT_TYPE,EPOCH,MEAN_MOTION,ECCENTRICITY,INCLINATION,RA_OF_ASC_NODE,ARG_OF_PERICENTER,MEAN_ANOMALY,BSTAR,MEAN_MOTION_DOT,MEAN_MOTION_DDOT,TLE_LINE0,TLE_LINE1,TLE_LINE2,SEMIMAJOR_AXIS,PERIOD,APOGEE,PERIGEE,DECAYED
52118.0,STARLINK-3743,PAYLOAD,2024-01-08 00:51:01,15.08837073,0.0001342,53.2173,32.995,89.8711,270.2435,8.4597e-05,1.059e-05,0.0,0 STARLINK-3743,1 52118U 22029AG  24008.03543535  .00001059  00000-0  84597-4 0  9996,2 52118  53.2173  32.9950 0001342  89.8711 270.2435 15.08837073101278,6917.889,95.438,540.683,538.826,0.0
52118.0,STARLINK-3743,PAYLOAD,2024-01-08 08:47:56,15.08850316,0.000137,53.2173,31.5095,78.6823,281.4323,0.00015383,2.162e-05,0.0,0 STARLINK-3743,1 52118U 22029AG  24008.36662561  .00002162  00000-0  15383-3 0  9995,2 52118  53.2173  31.5095 0001370  78.6823 281.4323 15.08850316101325,6917.849,95.437,540.662,538.766,0.0
52118.0,STARLINK-3743,PAYLOAD,2024-01-08 23:06:25,15.08834377,0.0001433,53.2178,28.8333,96.8742,263.2413,0.00018747,2.696e-05,0.0,0 STARLINK-3743,1 52118U 22029AG  24008.96279489  .00002696  00000-0  18747-3 0  9993,2 52118  53.2178  28.8333 0001433  96.8742 263.2413 15.08834377101413,6917.898,95.438,540.754,538.771,0.0
52118.0,STARLINK-3743,PAYLOAD,2024-01-09 10:14:07,15.08840746,0.0001463,53.2178,26.7516,97.7365,262.3794,0.00022321,3.266e-05,0.0,0 STARLINK-3743,1 52118U 22029AG  24009.42647277  .00003266  00000-0  22321-3 0  9996,2 52118  53.2178  26.7516 0001463  97.7365 262.3794 15.08840746101483,6917.878,95.438,540.755,538.731,0.0
52118.0,STARLINK-3743,PAYLOAD,2024-01-10 00:32:35,15.08843241,0.0001477,53.2174,24.075,99.375,260.7409,-1.9397e-05,-5.97e-06,0.0,0 STARLINK-3743,1 52118U 22029AG  24010.02263692 -.00000597  00000-0 -19397-4 0  9995,2 52118  53.2174  24.0750 0001477  99.3750 260.7409 15.08843241101579,6917.87,95.437,540.757,538.714,0.0
52118.0,STARLINK-3743,PAYLOAD,2024-01-10 06:54:08,15.08846679,0.0001445,53.2175,22.8859,91.9541,268.1617,5.2014e-06,-2.05e-06,0.0,0 STARLINK-3743,1 52118U 22029AG  24010.28759355 -.00000205  00000-0  52014-5 0  9998,2 52118  53.2175  22.8859 0001445  91.9541 268.1617 15.08846679101613,6917.86,95.437,540.725,538.725,0.0
52118.0,STARLINK-3743,PAYLOAD,2024-01-11 09:55:40,15.08849577,0.0001508,53.218,17.83,104.5751,255.5408,0.00015385,2.162e-05,0.0,0 STARLINK-3743,1 52118U 22029AG  24011.41366640  .00002162  00000-0  15385-3 0  9996,2 52118  53.2180  17.8300 0001508 104.5751 255.5408 15.08849577101784,6917.851,95.437,540.759,538.673,0.0
52118.0,STARLINK-3743,PAYLOAD,2024-01-12 03:24:55,15.08840063,0.0001953,53.217,14.559,115.134,244.9855,8.4989e-05,1.065e-05,0.0,0 STARLINK-3743,1 52118U 22029AG  24012.14231443  .00001065  00000-0  84989-4 0  9997,2 52118  53.2170  14.5590 0001953 115.1340 244.9855 15.08840063101895,6917.88,95.438,541.096,538.394,0.0
52118.0,STARLINK-3743,PAYLOAD,2024-01-12 06:35:42,15.08841519,0.0001534,53.2171,13.9656,96.8411,263.2756,0.00011211,1.497e-05,0.0,0 STARLINK-3743,1 52118U 22029AG  24012.27479530  .00001497  00000-0  11211-3 0  9998,2 52118  53.2171  13.9656 0001534  96.8411 263.2756 15.08841519101915,6917.876,95.437,540.802,538.68,0.0
52118.0,STARLINK-3743,PAYLOAD,2024-01-13 03:15:43,15.0883804,0.0001726,53.2185,10.1014,110.276,249.8418,-3.9656e-05,-9.19e-06,0.0,0 STARLINK-3743,1 52118U 22029AG  24013.13591859 -.00000919  00000-0 -39656-4 0  9997,2 52118  53.2185  10.1014 0001726 110.2760 249.8418 15.08838040102043,6917.886,95.438,540.945,538.557,0.0
52118.0,STARLINK-3743,PAYLOAD,2024-01-13 06:26:29,15.08839749,0.000175,53.2187,9.5068,108.3194,251.7989,-8.8695e-06,-4.29e-06,0.0,0 STARLINK-3743,1 52118U 22029AG  24013.26839806 -.00000429  00000-0 -88695-5 0  9992,2 52118  53.2187   9.5068 0001750 108.3194 251.7989 15.08839749102066,6917.881,95.438,540.957,538.536,0.0
52118.0,STARLINK-3743,PAYLOAD,2024-01-14 04:41:53,15.08841772,0.0001374,53.2173,5.3405,101.0673,259.0473,9.6318e-05,1.245e-05,0.0,0 STARLINK-3743,1 52118U 22029AG  24014.19575912  .00001245  00000-0  96318-4 0  9995,2 52118  53.2173   5.3405 0001374 101.0673 259.0473 15.08841772102208,6917.875,95.437,540.69,538.789,0.0
52118.0,STARLINK-3743,PAYLOAD,2024-01-14 06:17:16,15.08844147,0.0001409,53.2172,5.0421,98.0679,262.0473,0.00013982,1.938e-05,0.0,0 STARLINK-3743,1 52118U 22029AG  24014.26199772  .00001938  00000-0  13982-3 0  9993,2 52118  53.2172   5.0421 0001409  98.0679 262.0473 15.08844147102216,6917.868,95.437,540.707,538.758,0.0
52118.0,STARLINK-3743,PAYLOAD,2024-01-15 07:43:26,15.08854039,0.0001437,53.2179,0.2842,94.7199,265.3958,0.00019084,2.752e-05,0.0,0 STARLINK-3743,1 52118U 22029AG  24015.32183305  .00002752  00000-0  19084-3 0  9990,2 52118  53.2179   0.2842 0001437  94.7199 265.3958 15.08854039102370,6917.837,95.437,540.697,538.708,0.0
52118.0,STARLINK-3743,PAYLOAD,2024-01-16 07:34:14,15.08838773,0.0001481,53.2174,355.8255,99.5781,260.5378,-3.8304e-06,-3.49e-06,0.0,0 STARLINK-3743,1 52118U 22029AG  24016.31544175 -.00000349  00000-0 -38304-5 0  9996,2 52118  53.2174 355.8255 0001481  99.5781 260.5378 15.08838773102528,6917.884,95.438,540.774,538.725,0.0
52118.0,STARLINK-3743,PAYLOAD,2024-01-17 05:49:37,15.08845443,0.0001538,53.2175,351.666,96.3903,263.7265,0.00010841,1.438e-05,0.0,0 STARLINK-3743,1 52118U 22029AG  24017.24279954  .00001438  00000-0  10841-3 0  9991,2 52118  53.2175 351.6660 0001538  96.3903 263.7265 15.08845443102664,6917.864,95.437,540.793,538.665,0.0
52118.0,STARLINK-3743,PAYLOAD,2024-01-18 04:05:02,15.08838844,0.0001886,53.2191,347.4999,75.0328,285.0873,4.3947e-05,4.11e-06,0.0,0 STARLINK-3743,1 52118U 22029AG  24018.17016871  .00000411  00000-0  43947-4 0  9995,2 52118  53.2191 347.4999 0001886  75.0328 285.0873 15.08838844102806,6917.884,95.438,541.054,538.444,0.0
52118.0,STARLINK-3743,PAYLOAD,2024-01-18 07:15:48,15.08845083,0.0001837,53.2199,346.8989,83.2947,276.8255,0.00014364,1.999e-05,0.0,0 STARLINK-3743,1 52118U 22029AG  24018.30264446  .00001999  00000-0  14364-3 0  9995,2 52118  53.2199 346.8989 0001837  83.2947 276.8255 15.08845083102827,6917.865,95.437,541.001,538.459,0.0
52118.0,STARLINK-3743,PAYLOAD,2024-01-19 07:06:35,15.08850043,0.0001775,53.2187,342.4371,82.1043,278.0151,0.0001424,1.98e-05,0.0,0 STARLINK-3743,1 52118U 22029AG  24019.29624031  .00001980  00000-0  14240-3 0  9997,2 52118  53.2187 342.4371 0001775  82.1043 278.0151 15.08850043102974,6917.85,95.437,540.943,538.487,0.0
52118.0,STARLINK-3743,PAYLOAD,2024-01-20 03:46:35,15.08848624,0.0001545,53.2182,338.5741,100.9044,259.2122,0.00011937,1.613e-05,0.0,0 STARLINK-3743,1 52118U 22029AG  24020.15736012  .00001613  00000-0  11937-3 0  9990,2 52118  53.2182 338.5741 0001545 100.9044 259.2122 15.08848624103108,6917.854,95.437,540.788,538.65,0.0
52118.0,STARLINK-3743,PAYLOAD,2024-01-21 02:02:00,15.08841427,0.0001721,53.2198,334.4116,95.9575,264.1613,-2.5862e-05,-7e-06,0.0,0 STARLINK-3743,1 52118U 22029AG  24021.08472729 -.00000700  00000-0 -25862-4 0  9996,2 52118  53.2198 334.4116 0001721  95.9575 264.1613 15.08841427103243,6917.876,95.437,540.932,538.55,0.0
52118.0,STARLINK-3743,PAYLOAD,2024-01-21 06:48:09,15.08844404,0.0001644,53.2194,333.5197,104.3692,255.7483,-9.2928e-06,-4.36e-06,0.0,0 STARLINK-3743,1 52118U 22029AG  24021.28344450 -.00000436  00000-0 -92928-5 0  9991,2 52118  53.2194 333.5197 0001644 104.3692 255.7483 15.08844404103279,6917.867,95.437,540.869,538.595,0.0
52118.0,STARLINK-3743,PAYLOAD,2024-01-22 03:28:10,15.08845131,0.0001609,53.2194,329.6546,98.707,261.4104,5.7806e-05,6.32e-06,0.0,0 STARLINK-3743,1 52118U 22029AG  24022.14456327  .00000632  00000-0  57806-4 0  9995,2 52118  53.2194 329.6546 0001609  98.7070 261.4104 15.08845131103407,6917.865,95.437,540.843,538.617,0.0
52118.0,STARLINK-3743,PAYLOAD,2024-01-22 06:38:56,15.08849488,0.0001607,53.2192,329.0587,101.4919,258.6254,7.7696e-05,9.49e-06,0.0,0 STARLINK-3743,1 52118U 22029AG  24022.27704072  .00000949  00000-0  77696-4 0  9992,2 52118  53.2192 329.0587 0001607 101.4919 258.6254 15.08849488103421,6917.851,95.437,540.828,538.605,0.0
52118.0,STARLINK-3743,PAYLOAD,2024-01-23 03:18:57,15.08837032,0.0001521,53.2196,325.1911,96.8977,263.2188,9.5417e-05,1.231e-05,0.0,0 STARLINK-3743,1 52118U 22029AG  24023.13816986  .00001231  00000-0  95417-4 0  9992,2 52118  53.2196 325.1911 0001521  96.8977 263.2188 15.08837032103553,6917.889,95.438,540.807,538.702,0.0
52118.0,STARLINK-3743,PAYLOAD,2024-01-24 01:34:25,15.0881168,0.0001758,53.2192,321.0348,77.1087,283.0101,-0.00025939,-4.411e-05,0.0,0 STARLINK-3743,1 52118U 22029AG  24024.06557293 -.00004411  00000-0 -25939-3 0  9994,2 52118  53.2192 321.0348 0001758  77.1087 283.0101 15.08811680103695,6917.967,95.439,541.048,538.616,0.0
52118.0,STARLINK-3743,PAYLOAD,2024-01-25 01:25:08,15.08867872,0.0001601,53.2189,316.5748,111.7393,248.3769,0.0003213,4.833e-05,0.0,0 STARLINK-3743,1 52118U 22029AG  24025.05912213  .00004833  00000-0  32130-3 0  9998,2 52118  53.2189 316.5748 0001601 111.7393 248.3769 15.08867872103841,6917.795,95.436,540.768,538.553,0.0
52118.0,STARLINK-3743,PAYLOAD,2024-01-26 01:15:56,15.08849837,0.0002342,53.2188,312.1218,146.7623,213.3516,0.00025654,3.798e-05,0.0,0 STARLINK-3743,1 52118U 22029AG  24026.05273816  .00003798  00000-0  25654-3 0  9990,2 52118  53.2188 312.1218 0002342 146.7623 213.3516 15.08849837103990,6917.85,95.437,541.335,538.095,0.0
52118.0,STARLINK-3743,PAYLOAD,2024-01-27 01:06:42,15.08868493,0.0001427,53.2186,307.6536,103.4548,256.6603,-0.00017085,-3.008e-05,0.0,0 STARLINK-3743,1 52118U 22029AG  24027.04632967 -.00003008  00000-0 -17085-3 0  9991,2 52118  53.2186 307.6536 0001427 103.4548 256.6603 15.08868493104143,6917.793,95.436,540.645,538.671,0.0
52118.0,STARLINK-3743,PAYLOAD,2024-01-27 21:46:44,15.08840166,0.0001434,53.2189,303.7878,110.139,249.9757,-9.2016e-06,-4.34e-06,0.0,0 STARLINK-3743,1 52118U 22029AG  24027.90745662 -.00000434  00000-0 -92016-5 0  9992,2 52118  53.2189 303.7878 0001434 110.1390 249.9757 15.08840166104276,6917.88,95.438,540.737,538.753,0.0
